{
    "satellites": [
        {
            "name": "starlink313",
            "title": "Starlink-313 (G11-12)",
            "tle": [
                "1 66173C 25240AD  25309.89006944 -.01847600  00000+0 -11609-1 0  3095",
                "2 66173  53.1531 281.8146 0001271  94.6079  81.6510 15.77918501    15"
            ],
            "stdMag": 5,
            "noradId": "66173",
            "tleUrl": "http://celestrak.org/NORAD/elements/supplemental/sup-gp.php?FILE=starlink&FORMAT=tle",
            "launchDate": "2025-10-25T14:20:50.000Z",
            "active": true,
            "batch": [
                {
                    "noradId": "66173",
                    "tle": [
                        "1 66173C 25240AD  25309.89006944 -.01847600  00000+0 -11609-1 0  3095",
                        "2 66173  53.1531 281.8146 0001271  94.6079  81.6510 15.77918501    15"
                    ]
                },
                {
                    "noradId": "66168",
                    "tle": [
                        "1 66168C 25240Y   25309.89076389 -.01818500  00000+0 -11371-1 0  3092",
                        "2 66168  53.1534 281.8238 0001275  93.7203  80.3182 15.77998138    12"
                    ]
                },
                {
                    "noradId": "66170",
                    "tle": [
                        "1 66170C 25240AA  25309.89631944 -.01825200  00000+0 -11444-1 0  3095",
                        "2 66170  53.1538 281.7919 0001015  92.4562 115.2337 15.77943036    17"
                    ]
                },
                {
                    "noradId": "66172",
                    "tle": [
                        "1 66172C 25240AC  25309.89145833 -.01808700  00000+0 -11295-1 0  3094",
                        "2 66172  53.1532 281.8244 0001021 100.0593  75.8824 15.78018450    18"
                    ]
                },
                {
                    "noradId": "66169",
                    "tle": [
                        "1 66169C 25240Z   25309.89076389 -.01800100  00000+0 -11239-1 0  3093",
                        "2 66169  53.1534 281.8318 0001020  89.7370  80.3291 15.78015197    17"
                    ]
                },
                {
                    "noradId": "66171",
                    "tle": [
                        "1 66171C 25240AB  25309.89076389 -.01834600  00000+0 -11505-1 0  3094",
                        "2 66171  53.1534 281.8150 0001054  91.4601  86.6564 15.77949835    14"
                    ]
                },
                {
                    "noradId": "66167",
                    "tle": [
                        "1 66167C 25240X   25309.89493056 -.01783100  00000+0 -11099-1 0  3099",
                        "2 66167  53.1531 281.8195 0001228 109.0341  80.5565 15.78065262    13"
                    ]
                },
                {
                    "noradId": "66166",
                    "tle": [
                        "1 66166C 25240W   25309.89701389 -.01790100  00000+0 -11153-1 0  3098",
                        "2 66166  53.1535 281.8054 0001008 103.0601 100.3401 15.78052586    14"
                    ]
                },
                {
                    "noradId": "66165",
                    "tle": [
                        "1 66165C 25240V   25309.89215278 -.01750200  00000+0 -10841-1 0  3094",
                        "2 66165  53.1531 281.8427 0001000  86.0651  83.4971 15.78141519    18"
                    ]
                },
                {
                    "noradId": "66164",
                    "tle": [
                        "1 66164C 25240U   25309.89215278 -.01763400  00000+0 -10938-1 0  3096",
                        "2 66164  53.1531 281.8381 0001311  90.8309  80.7769 15.78123868    16"
                    ]
                },
                {
                    "noradId": "66163",
                    "tle": [
                        "1 66163C 25240T   25309.89631944 -.01738100  00000+0 -10761-1 0  3090",
                        "2 66163  53.1535 281.8260 0001000  98.1410  93.0822 15.78139910    16"
                    ]
                },
                {
                    "noradId": "66162",
                    "tle": [
                        "1 66162C 25240S   25309.88937500 -.01717700  00000+0 -10591-1 0  3099",
                        "2 66162  53.1534 281.8651 0001024  83.1450  66.3889 15.78212378    18"
                    ]
                },
                {
                    "noradId": "66161",
                    "tle": [
                        "1 66161C 25240R   25309.89215278 -.01676500  00000+0 -10300-1 0  3090",
                        "2 66161  53.1534 281.8603 0001207 105.7298  55.3537 15.78251328    14"
                    ]
                },
                {
                    "noradId": "66160",
                    "tle": [
                        "1 66160C 25240Q   25309.89076389 -.01690700  00000+0 -10395-1 0  3099",
                        "2 66160  53.1533 281.8629 0001062  87.5280  67.6713 15.78250640    15"
                    ]
                },
                {
                    "noradId": "66159",
                    "tle": [
                        "1 66159C 25240P   25309.89145833 -.01662100  00000+0 -10201-1 0  3097",
                        "2 66159  53.1535 281.8681 0001013  82.4914  72.6243 15.78260431    10"
                    ]
                },
                {
                    "noradId": "66158",
                    "tle": [
                        "1 66158C 25240N   25309.89215278 -.01638600  00000+0 -10031-1 0  3096",
                        "2 66158  53.1537 281.8696 0001060 104.9819  51.8690 15.78294443    18"
                    ]
                },
                {
                    "noradId": "66157",
                    "tle": [
                        "1 66157C 25240M   25309.89076389 -.01617700  00000+0 -98917-2 0  3091",
                        "2 66157  53.1536 281.8810 0000934  96.7908  50.1434 15.78298785    11"
                    ]
                },
                {
                    "noradId": "66156",
                    "tle": [
                        "1 66156C 25240L   25309.89284722 -.01600600  00000+0 -97699-2 0  3099",
                        "2 66156  53.1534 281.8746 0001087  87.3237  69.3061 15.78320738    19"
                    ]
                },
                {
                    "noradId": "66155",
                    "tle": [
                        "1 66155C 25240K   25309.89145833 -.01584400  00000+0 -96424-2 0  3091",
                        "2 66155  53.1534 281.8863 0000943  87.2629  59.2343 15.78370796    12"
                    ]
                },
                {
                    "noradId": "66154",
                    "tle": [
                        "1 66154C 25240J   25309.87895833 -.01572700  00000+0 -95486-2 0  3097",
                        "2 66154  53.1535 281.9533 0000943  79.6017 353.8225 15.78412411    16"
                    ]
                },
                {
                    "noradId": "66153",
                    "tle": [
                        "1 66153C 25240H   25309.87548611 -.01563800  00000+0 -94796-2 0  3099",
                        "2 66153  53.1537 281.9754 0000673  89.8702 321.7468 15.78439880    18"
                    ]
                },
                {
                    "noradId": "66152",
                    "tle": [
                        "1 66152C 25240G   25309.88868056 -.01552000  00000+0 -94031-2 0  3099",
                        "2 66152  53.1533 281.9135 0001000  79.9653  44.4604 15.78439175    14"
                    ]
                },
                {
                    "noradId": "66151",
                    "tle": [
                        "1 66151C 25240F   25309.89006944 -.01541600  00000+0 -93197-2 0  3095",
                        "2 66151  53.1535 281.9113 0001022  80.0267  50.0776 15.78478173    13"
                    ]
                },
                {
                    "noradId": "66150",
                    "tle": [
                        "1 66150C 25240E   25309.89076389 -.01535600  00000+0 -92811-2 0  3099",
                        "2 66150  53.1539 281.9123 0000955  88.1151  43.9664 15.78477155    18"
                    ]
                },
                {
                    "noradId": "66149",
                    "tle": [
                        "1 66149C 25240D   25309.89354167 -.01522400  00000+0 -91854-2 0  3090",
                        "2 66149  53.1536 281.9027 0001147  88.5379  57.1490 15.78502767    18"
                    ]
                },
                {
                    "noradId": "66148",
                    "tle": [
                        "1 66148C 25240C   25309.89701389 -.01513300  00000+0 -91215-2 0  3091",
                        "2 66148  53.1537 281.8900 0000916 100.0027  63.3139 15.78516135    13"
                    ]
                },
                {
                    "noradId": "66147",
                    "tle": [
                        "1 66147C 25240B   25309.85951389 -.01501200  00000+0 -89879-2 0  3092",
                        "2 66147  53.1536 282.0817 0000625  90.4290 217.5103 15.78655700    18"
                    ]
                },
                {
                    "noradId": "66146",
                    "tle": [
                        "1 66146C 25240A   25309.89631944 -.01492600  00000+0 -89635-2 0  3090",
                        "2 66146  53.1535 281.9024 0000888  87.6844  67.3771 15.78577747    14"
                    ]
                }
            ]
        }
    ],
    "config": {}
}